[{"OBJECT_NAME":"STARLINK-33737","OBJECT_ID":"2025-069Z","EPOCH":"2026-03-09T11:28:32.822688","MEAN_MOTION":15.3018768,"ECCENTRICITY":9.607e-5,"INCLINATION":53.1584,"RA_OF_ASC_NODE":143.342,"ARG_OF_PERICENTER":92.8182,"MEAN_ANOMALY":267.2928,"EPHEMERIS_TYPE":0,"CLASSIFICATION_TYPE":"U","NORAD_CAT_ID":63456,"ELEMENT_SET_NO":999,"REV_AT_EPOCH":5326,"BSTAR":0.00076330674,"MEAN_MOTION_DOT":0.00022307,"MEAN_MOTION_DDOT":0},{"OBJECT_NAME":"THOR AGENA B DEB","OBJECT_ID":"1965-098G","EPOCH":"2026-03-09T23:22:06.853152","MEAN_MOTION":13.57256453,"ECCENTRICITY":0.07679635,"INCLINATION":79.6109,"RA_OF_ASC_NODE":51.0692,"ARG_OF_PERICENTER":143.4347,"MEAN_ANOMALY":222.1845,"EPHEMERIS_TYPE":0,"CLASSIFICATION_TYPE":"U","NORAD_CAT_ID":1951,"ELEMENT_SET_NO":999,"REV_AT_EPOCH":79416,"BSTAR":0.00077607754,"MEAN_MOTION_DOT":4.232e-5,"MEAN_MOTION_DDOT":0}]
